1 41727U 16049A   25352.63209162  .00000162  00000+0  62429-4 0  9992
2 41727  98.4034 358.1289 0001284  57.6740 302.4573 14.42215499492629
